{"state":"va","counties":{"STAFFORD":{"elections_url":"http://CO.STAFFORD.VA.US/REGISTRAR","official":{"phone":"(540) 658-4000","fax":"(540) 658-4003"},"name":"Stafford County General Registrar","address":{"city":"Stafford","state":"VA","zip":"22555","location_name":"Stafford County Admin Ctr"}},"NELSON":{"elections_url":"http://nelsoncounty.com/agencies/registrar/","official":{"phone":"(434) 263-4068","fax":"(434) 263-8601"},"name":"Nelson County General Registrar","address":{"city":"Lovingston ","state":"VA","zip":"22949","location_name":"Health Dept Bldg"}},"WASHINGTON":{"elections_url":"http://www.washcova.com/government/other-offices/general-voter-registrar","official":{"phone":"(276) 676-6227","fax":"(276) 676-6200"},"name":"Washington County General Registrar","address":{"line1":"25552 Lee Highway","city":"Abingdon","state":"VA","zip":"24211"}},"BUCKINGHAM":{"elections_url":"http://www.buckinghamcountyva.org/Registrar.html","official":{"phone":"(434) 969-4304","fax":"(434) 969-2060"},"name":"Buckingham County General Registrar","address":{"city":"Buckingham","state":"VA","zip":"23921"}},"RICHMOND":{"elections_url":"http://www.co.richmond.va.us/govoffices.htm#Registrar's_Office","official":{"phone":"(804) 333-4772","fax":"(804) 333-3408"},"name":"Richmond County General Registrar","address":{"city":"Warsaw","state":"VA","zip":"22572","location_name":"County Office Building"}},"BUCHANAN":{"official":{"phone":"(276) 935-6534","fax":"(276) 935-4320"},"name":"Buchanan County General Registrar","address":{"line1":"1012 Walnut Street","city":"Grundy","state":"VA","zip":"24614"}},"GREENE":{"elections_url":"http://www.gcva.us/dpts/vote/default.htm","official":{"phone":"(434) 985-5213","fax":"(434) 985-2369"},"name":"Greene County General Registrar","address":{"line1":"32 Stanard Street","city":"Stanardsville ","state":"VA","zip":"22973"}},"FLUVANNA":{"elections_url":"http://www.co.fluvanna.va.us/registrar.htm","official":{"phone":"(434) 589-3593","fax":"(434) 589-6383"},"name":"Fluvanna County General Registrar","address":{"line1":"196 Main St.","city":"Palmyra","state":"VA","zip":"22963"}},"AMHERST":{"elections_url":"http://www.countyofamherst.com/department/?fDD=13-0","official":{"phone":"(434) 946-9315","fax":"(434) 946-9345"},"name":"Amherst County General Registrar","address":{"city":"Amherst ","state":"VA","zip":"24521"}},"PULASKI":{"elections_url":"http://www.pulaskicounty.org/","official":{"phone":"(540) 980-2111","fax":"(540) 994-5883"},"name":"Pulaski County General Registrar","address":{"line1":"52 W. MAIN STREET","city":"Pulaski ","state":"VA","zip":"24301"}},"NORTHAMPTON":{"elections_url":"http://www.co.northampton.va.us/gov/registrar/","official":{"phone":"(757) 678-0480","fax":"(757) 678-0453"},"name":"Northampton County General Registrar","address":{"line1":"16403 Courthouse Rd","city":"Eastville","state":"VA","zip":"23347"}},"ALBEMARLE":{"elections_url":"https://www.albemarle.org/registrar","official":{"phone":"(434) 972-4173","fax":"(434) 972-4178"},"name":"Albemarle County General Registrar","address":{"line1":"536 Pantops Center","city":"Charlottesville","state":"VA","zip":"22911"}},"SCOTT":{"official":{"phone":"(276) 386-3843","fax":"(276) 386-3741"},"name":"Scott County General Registrar","address":{"line1":"104 Jones Street","city":"Gate City ","state":"VA","zip":"24251"}},"FAIRFAX":{"elections_url":"http://www.fairfaxcounty.gov/eb","official":{"phone":"(703) 222-0776"},"name":"Fairfax County General Registrar","address":{"city":"Fairfax","state":"VA","zip":"22038"}},"RAPPAHANNOCK":{"official":{"phone":"(540) 675-5380","fax":"(540) 675-5381"},"name":"Rappahannock County General Registrar","address":{"line1":"262a Gay Street","city":"Washington","state":"VA","zip":"22747","location_name":"Courthouse Complex"}},"GOOCHLAND":{"elections_url":"http://www.co.goochland.va.us/Departments/DepartmentsGZ/Registrar/tabid/58/Default.aspx","official":{"phone":"(804) 556-5803","fax":"(804) 556-6323"},"name":"Goochland County General Registrar","address":{"line1":"1800 Sandy Hook Road","city":"Goochland ","state":"VA","zip":"23063"}},"ROCKBRIDGE":{"elections_url":"http://www.co.rockbridge.va.us","official":{"phone":"(540) 463-7203","fax":"(540) 463-1078"},"name":"Rockbridge County General Registrar","address":{"line1":"150 South Main Street","city":"Lexington","state":"VA","zip":"24450"}},"ACCOMACK":{"official":{"phone":"(757) 787-2935","fax":"(757) 824-0525"},"name":"Accomack County General Registrar","address":{"line1":"23312 Courthouse Ave","city":"Accomac ","state":"VA","zip":"23301"}},"FRANKLIN":{"elections_url":"http://www.franklincountyva.org/vote/","official":{"phone":"(540) 483-3025","fax":"(540) 483-6619"},"name":"Franklin County General Registrar","address":{"line1":"70 E Court St","city":"Rocky Mount ","state":"VA","zip":"24151"}},"MONTGOMERY":{"elections_url":"http://www.montva.com/departments/vote/","official":{"phone":"(540) 382-5741","fax":"(540) 381-6811"},"name":"Montgomery County General Registrar","address":{"line1":"755 Roanoke Street","city":"Christiansburg","state":"VA","zip":"24073"}},"LOUDOUN":{"elections_url":"http://www.loudoun.gov/government/voting.htm","official":{"phone":"(703) 777-0380","fax":"(703) 777-0622"},"name":"Loudoun County General Registrar","address":{"line1":"801 Sycolin Road SE","city":"Leesburg","state":"VA","zip":"20175"}},"PAGE":{"elections_url":"http://pagecounty.virginia.gov/index.php?option=content&task=view&id=243","official":{"phone":"(540) 743-3986","fax":"(540) 743-1988"},"name":"Page County General Registrar","address":{"line1":"117 South Court Street","city":"Luray","state":"VA","zip":"22835"}},"SHENANDOAH":{"elections_url":"https://www.shenandoahcountyva.us/voter","official":{"phone":"(540) 459-6195","fax":"(540) 459-6196"},"name":"Shenandoah County General Registrar","address":{"line1":"600 N Main Street","city":"Woodstock","state":"VA","zip":"22664"}},"MATHEWS":{"elections_url":"http://www.co.mathews.va.us/index.aspx?page=48","official":{"phone":"(804) 725-3200","fax":"(804) 725-5786"},"name":"Mathews County General Registrar","address":{"city":"Mathews","state":"VA","zip":"23109"}},"LANCASTER":{"official":{"phone":"(804) 462-5277","fax":"(804) 462-5228"},"name":"Lancaster County General Registrar","address":{"line1":"8694 Mary Ball Road","city":"Lancaster","state":"VA","zip":"22503"}},"WISE":{"elections_url":"http://www.wisecounty.org/registrar/registrar.html","official":{"phone":"(276) 328-8331","fax":"(276) 328-7111"},"name":"Wise County General Registrar","address":{"city":"Wise","state":"VA","zip":"24293"}},"PATRICK":{"elections_url":"http://www.co.patrick.va.us/department.cfm?ID=18&pg=52","official":{"phone":"(276) 694-7206","fax":"(276) 694-5488"},"name":"Patrick County General Registrar","address":{"city":"Stuart","state":"VA","zip":"24171"}},"FLOYD":{"elections_url":"http://www.floydcova.org/government/voter_registrar.shtml","official":{"phone":"(540) 745-9350","fax":"(540) 745-9390"},"name":"Floyd County General Registrar","address":{"line1":"100 E Main St","city":"Floyd","state":"VA","zip":"24091","location_name":"Courthouse"}},"CHARLES CITY":{"elections_url":"http://co.charles-city.va.us/index.asp?Type=B_BASIC&SEC={DDE69E26-D9AC-43E3-8B83-1543EED7554F}","official":{"phone":"(804) 652-4606","fax":"(804) 829-6823"},"name":"Charles City County General Registrar","address":{"city":"Charles City ","state":"VA","zip":"23030"}},"RUSSELL":{"official":{"phone":"(276) 889-8006","fax":"(276) 889-8022"},"name":"Russell County General Registrar","address":{"line1":"96 Russell St","city":"Lebanon","state":"VA","zip":"24266","location_name":"Courthouse Annex"}},"PRINCE WILLIAM":{"elections_url":"http://www.pwcgov.org/vote","official":{"phone":"(703) 792-6470","fax":"(703) 792-6461"},"name":"Prince William County General Registrar","address":{"line1":"9250 Lee Avenue","city":"Manassas","state":"VA","zip":"20110"}},"BOTETOURT":{"elections_url":"http://www.co.botetourt.va.us/government/voter_inf","official":{"phone":"(540) 473-8235","fax":"(540) 473-8330"},"name":"Botetourt County General Registrar","address":{"line1":"2 E Main St","city":"Fincastle","state":"VA","zip":"24090","location_name":"Old Po Bldg"}},"ALLEGHANY":{"official":{"phone":"(540) 965-1690","fax":"(540) 965-1692"},"name":"Alleghany County General Registrar","address":{"line1":"110 Rosedale Avenue","city":"Covington","state":"VA","zip":"24426"}},"CRAIG":{"official":{"phone":"(540) 864-6190","fax":"(540) 864-6454"},"name":"Craig County General Registrar","address":{"line1":"155 Main St","city":"New Castle ","state":"VA","zip":"24127"}},"WYTHE":{"official":{"phone":"(276) 223-6038","fax":"(276) 223-6039"},"name":"Wythe County General Registrar","address":{"line1":"245 S 4th Street","city":"Wytheville","state":"VA","zip":"24382","location_name":"Law Enforcement & Judicial Center"}},"WESTMORELAND":{"elections_url":"http://www.westmoreland-county.org/index.php?p=living&c=voting","official":{"phone":"(804) 493-8898","fax":"(804) 493-0158"},"name":"Westmoreland County General Registrar","address":{"city":"Montross","state":"VA","zip":"22520"}},"ROCKINGHAM":{"elections_url":"http://www.RockinghamVoters.com","official":{"phone":"(540) 564-3055","fax":"(540) 564-3057"},"name":"Rockingham County General Registrar","address":{"line1":"20 E. Gay Street","city":"Harrisonburg","state":"VA","zip":"22802"}},"LEE":{"official":{"phone":"(276) 346-7780","fax":"(276) 346-7781"},"name":"Lee County General Registrar","address":{"city":"Jonesville","state":"VA","zip":"24263","location_name":"Montgomery Law Office Bldg"}},"PRINCE GEORGE":{"elections_url":"http://www.princegeorgeva.org/Index.aspx?page=51","official":{"phone":"(804) 722-8748","fax":"(804) 733-2793"},"name":"Prince George County General Registrar","address":{"line1":"6602 Courts Drive","city":"Prince George ","state":"VA","zip":"23875"}},"CARROLL":{"elections_url":"http://www.carrollcountyva.org/voterregistration/","official":{"phone":"(276) 730-3035","fax":"(276) 730-3040"},"name":"Carroll County General Registrar","address":{"line1":"605-3 Pine Street","city":"Hillsville","state":"VA","zip":"24343","location_name":"Governmental Center"}},"GRAYSON":{"elections_url":"http://www.graysongovernment.com/mountrogers.aspx","official":{"phone":"(276) 773-2842","fax":"(276) 773-2842"},"name":"Grayson County General Registrar","address":{"line1":"129 Davis Street","city":"Independence","state":"VA","zip":"24348"}},"MECKLENBURG":{"official":{"phone":"(434) 738-6191","fax":"(434) 738-6104"},"name":"Mecklenburg County General Registrar","address":{"city":"Boydton","state":"VA","zip":"23917"}},"PITTSYLVANIA":{"official":{"phone":"(434) 432-7971","fax":"(434) 432-7973"},"name":"Pittsylvania County General Registrar","address":{"line1":"110 Old Chatham Elem School Ln","city":"Chatham","state":"VA","zip":"24531"}},"ROANOKE":{"elections_url":"http://www.roanokecountyva.gov","official":{"phone":"(540) 772-7500","fax":"(540) 772-2115"},"name":"Roanoke County General Registrar","address":{"city":"Roanoke ","state":"VA","zip":"24018"}},"GLOUCESTER":{"elections_url":"http://www.gloucesterva.info/registrar/homepage.ht","official":{"phone":"(804) 693-3659","fax":"(804) 693-3831"},"name":"Gloucester County General Registrar","address":{"city":"Gloucester","state":"VA","zip":"23061"}},"ORANGE":{"elections_url":"http://orangecountyva.gov/voter/index.asp","official":{"phone":"(540) 672-5262","fax":"(540) 672-4872"},"name":"Orange County General Registrar","address":{"line1":"146 Madison Rd","city":"Orange","state":"VA","zip":"22960"}},"CULPEPER":{"elections_url":"http://web.culpepercounty.gov/CountyGovernment/Registrar.aspx","official":{"phone":"(540) 825-0652","fax":"(540) 825-8454"},"name":"Culpeper County General Registrar","address":{"line1":"151 North Main Street Suite 301","city":"Culpeper ","state":"VA","zip":"22701"}},"APPOMATTOX":{"official":{"phone":"(434) 352-5302","fax":"(434) 352-4409"},"name":"Appomattox County General Registrar","address":{"city":"Appomattox","state":"VA","zip":"24522"}},"DICKENSON":{"elections_url":"http://www.dickensoncountyvirginia.org/html/voter_registration.html","official":{"phone":"(276) 926-1620","fax":"(276) 926-8287"},"name":"Dickenson County General Registrar","address":{"city":"Clintwood","state":"VA","zip":"24228","location_name":"Dmv Building"}},"TAZEWELL":{"official":{"phone":"(276) 988-1305","fax":"(276) 988-2530"},"name":"Tazewell County General Registrar","address":{"city":"Tazewell ","state":"VA","zip":"24651"}},"HENRY":{"elections_url":"http://www.henrycountyva.gov/Voter-Registration.html","official":{"phone":"(276) 638-5108","fax":"(276) 638-8278"},"name":"Henry County General Registrar","address":{"line1":"3300 Kings Mountain Rd","city":"Collinsville","state":"VA","zip":"24078"}},"SURRY":{"elections_url":"http://www.surrycounty.govoffice2.com/index.asp?Type=B_BASIC&SEC=%7BB20BF6F9-D0F1-451F-8BD1-76977F356C87%7D","official":{"phone":"(757) 294-5213","fax":"(757) 294-5285"},"name":"Surry County General Registrar","address":{"line1":"45 School St","city":"Surry","state":"VA","zip":"23883","location_name":"Surry Government Ctr"}},"KING WILLIAM":{"elections_url":"http://www.kingwilliamcounty.us/vote.htm","official":{"phone":"(804) 769-4952","fax":"(804) 769-4920"},"name":"King William County General Registrar","address":{"line1":"180 Horse Landing Road","city":"King William ","state":"VA","zip":"23086"}},"LUNENBURG":{"elections_url":"http://lunenburgva.org/gov_registrar.html","official":{"phone":"(434) 696-3071","fax":"(434) 696-3952"},"name":"Lunenburg County General Registrar","address":{"line1":"160 Courthouse Square","city":"Lunenburg","state":"VA","zip":"23952"}},"ARLINGTON":{"elections_url":"http://www.arlingtonva.us/vote","official":{"phone":"(703) 228-3456","fax":"(703) 228-3659"},"name":"Arlington County General Registrar","address":{"line1":"2100 Clarendon Blvd","city":"Arlington","state":"VA","zip":"22201"}},"AMELIA":{"official":{"phone":"(804) 561-3460","fax":"(804) 561-3490"},"name":"Amelia County General Registrar","address":{"city":"Amelia Court House ","state":"VA","zip":"23002"}},"POWHATAN":{"elections_url":"http://www.powhatanva.gov","official":{"phone":"(804) 598-5604","fax":"(804) 598-7835"},"name":"Powhatan County General Registrar","address":{"line1":"3834 Old Buckingham Road","city":"Powhatan","state":"VA","zip":"23139"}},"BATH":{"official":{"phone":"(540) 839-7266","fax":"(540) 839-7277"},"name":"Bath County General Registrar","address":{"city":"Warm Springs ","state":"VA","zip":"24484"}},"DINWIDDIE":{"elections_url":"http://www.dinwiddieva.us/county-depts/voter-reg/","official":{"phone":"(804) 469-4512","fax":"(804) 469-4544"},"name":"Dinwiddie County General Registrar","address":{"line1":"14016 Boydton Plank Road","city":"Dinwiddie","state":"VA","zip":"23841","location_name":"The Pamplin Building"}},"LOUISA":{"official":{"phone":"(540) 967-3427","fax":"(540) 967-3492"},"name":"Louisa County General Registrar","address":{"city":"Louisa","state":"VA","zip":"23093"}},"BRUNSWICK":{"elections_url":"http://www.brunswickco.com/html/registrar.html","official":{"phone":"(434) 848-4414","fax":"(434) 848-9276"},"name":"Brunswick County General Registrar","address":{"line1":"100 Tobacco St","city":"Lawrenceville","state":"VA","zip":"23868","location_name":"Government Building"}},"CUMBERLAND":{"elections_url":"http://www.cumberlandcounty.virginia.gov/registrar/index.html","official":{"phone":"(804) 492-4504","fax":"(804) 492-3571"},"name":"Cumberland County General Registrar","address":{"line1":"1487 Anderson Hwy","city":"Cumberland","state":"VA","zip":"23040"}},"SMYTH":{"elections_url":"http://www.smythcounty.org/Voter_Registrar/Voter_Registrar.htm","official":{"phone":"(276) 783-7000","fax":"(276) 783-9055"},"name":"Smyth County General Registrar","address":{"line1":"121 Bagley Circle","city":"Marion","state":"VA","zip":"24354"}},"GREENSVILLE":{"elections_url":"http://www.greensvillecountyva.gov/Local%20Government/Registrar/voting_registration_and_election.htm","official":{"phone":"(434) 348-4228","fax":"(434) 348-4257"},"name":"Greensville County General Registrar","address":{"city":"Emporia","state":"VA","zip":"23847"}},"CHARLOTTE":{"elections_url":"http://www.charlotteva.com/registrar.htm","official":{"phone":"(434) 542-5856","fax":"(434) 542-4168"},"name":"Charlotte County General Registrar","address":{"city":"Charlotte Court Hse ","state":"VA","zip":"23923"}},"KING & QUEEN":{"official":{"phone":"(804) 785-5980","fax":"(804) 785-5792"},"name":"King & Queen County General Registrar","address":{"line1":"232 Allens Circle","city":"King & Queen C H ","state":"VA","zip":"23085"}},"NEW KENT":{"elections_url":"http://www.co.new-kent.va.us/registrar/","official":{"phone":"(804) 966-9699","fax":"(804) 966-8536"},"name":"New Kent County General Registrar","address":{"line1":"12003 New Kent Hwy","city":"New Kent ","state":"VA","zip":"23124"}},"NORTHUMBERLAND":{"official":{"phone":"(804) 580-4655","fax":"(804) 580-2075"},"name":"Northumberland County General Registrar","address":{"line1":"72 Monument Place","city":"Heathsville","state":"VA","zip":"22473"}},"ISLE OF WIGHT":{"elections_url":"http://www.co.isle-of-wight.va.us/index.php?option=com_content&task=view&id=667&Itemid=8410:52 AM 10/15/2009","official":{"phone":"(757) 365-6230","fax":"(757) 357-5699"},"name":"Isle Of Wight County General Registrar","address":{"line1":"17106 Monument Circle","city":"Isle Of Wight ","state":"VA","zip":"23397"}},"GILES":{"elections_url":"http://gilescounty.org/voter.html","official":{"phone":"(540) 921-2802","fax":"(540) 921-3176"},"name":"Giles County General Registrar","address":{"line1":"120 N Main Street","city":"Pearisburg","state":"VA","zip":"24134"}},"MIDDLESEX":{"elections_url":"http://www.co.middlesex.va.us/registrar.htm","official":{"phone":"(804) 758-4420","fax":"(804) 758-3950"},"name":"Middlesex County General Registrar","address":{"line1":"865 General Puller Highway","city":"Saluda","state":"VA","zip":"23149"}},"HALIFAX":{"elections_url":"http://www.halifaxcountyva.gov/index.asp?Type=B_DIR&SEC=%7BA6420660-6AD4-4EA8-ABAF-B60E15AE339E%7D","official":{"phone":"(434) 476-3322","fax":"(434) 476-1045"},"name":"Halifax County General Registrar","address":{"city":"Halifax","state":"VA","zip":"24558"}},"FREDERICK":{"elections_url":"http://www.co.frederick.va.us/voter/fcvote2.h","official":{"phone":"(540) 665-5660","fax":"(540) 665-8976"},"name":"Frederick County General Registrar","address":{"line1":"107 N. Kent Street","city":"Winchester","state":"VA","zip":"22601"}},"CAROLINE":{"elections_url":"http://www.visitcaroline.com/registrar.html","official":{"phone":"(804) 633-9083","fax":"(804) 633-0362"},"name":"Caroline County General Registrar","address":{"line1":"109 County Street","city":"Bowling Green ","state":"VA","zip":"22427"}},"BLAND":{"elections_url":"http://www.bland.org/government/generalregistrar.html","official":{"phone":"(276) 688-4441","fax":"(276) 688-3552"},"name":"Bland County General Registrar","address":{"city":"Bland","state":"VA","zip":"24315"}},"FAUQUIER":{"elections_url":"http://www.fauquiercounty.gov/government/departmen","official":{"phone":"(540) 347-6972","fax":"(540) 349-4397"},"name":"Fauquier County General Registrar","address":{"line1":"32 Waterloo Street","city":"Warrenton","state":"VA","zip":"20186"}},"KING GEORGE":{"elections_url":"http://www.king-george.va.us","official":{"phone":"(540) 775-9186","fax":"(540) 775-4852"},"name":"King George County General Registrar","address":{"line1":"10459 Courthouse Dr","city":"King George ","state":"VA","zip":"22485"}},"PRINCE EDWARD":{"elections_url":"http://www.co.prince-edward.va.us/FOLDERS%20WEB_DEPTS/VOTER%20REGISTRAR/voter_registrar_index.html","official":{"phone":"(434) 392-4767","fax":"(434) 392-3889"},"name":"Prince Edward County General Registrar","address":{"city":"Farmville","state":"VA","zip":"23901"}},"YORK":{"elections_url":"http://www.yorkcounty.gov/voting","official":{"phone":"(757) 890-3440","fax":"(757) 890-3449"},"name":"York County General Registrar","address":{"line1":"224 Ballard St.","city":"Yorktown","state":"VA","zip":"23690","location_name":"County Administration Building"}},"CHESTERFIELD":{"elections_url":"http://www.chesterfield.gov/registrar","official":{"phone":"(804) 748-1471","fax":"(804) 751-0822"},"name":"Chesterfield County General Registrar","address":{"city":"Chesterfield","state":"VA","zip":"23832"}},"SOUTHAMPTON":{"elections_url":"http://www.southamptoncounty.org/voter.asp","official":{"phone":"(757) 653-9280","fax":"(757) 653-9401"},"name":"Southampton County General Registrar","address":{"city":"Courtland","state":"VA","zip":"23837"}},"NOTTOWAY":{"elections_url":"http://www.nottoway.org/voter_registration.shtml","official":{"phone":"(434) 645-8148","fax":"(434) 645-1636"},"name":"Nottoway County General Registrar","address":{"city":"Nottoway","state":"VA","zip":"23955"}},"CLARKE":{"elections_url":"http://www.clarkecounty.gov","official":{"phone":"(540) 955-5168","fax":"(540) 955-5169"},"name":"Clarke County General Registrar","address":{"line1":"101 Chalmers Ct","city":"Berryville ","state":"VA","zip":"22611"}},"AUGUSTA":{"elections_url":"http://www.co.augusta.va.us","official":{"phone":"(540) 245-5656","fax":"(540) 245-5037"},"name":"Augusta County General Registrar","address":{"city":"Verona","state":"VA","zip":"24482","location_name":"Augusta Co Gvnmnt Cntr"}},"SPOTSYLVANIA":{"elections_url":"http://www.spotsylvania.va.us/","official":{"phone":"(540) 507-7380","fax":"(540) 582-2604"},"name":"Spotsylvania County General Registrar","address":{"line1":"9106 A Courthouse Road","city":"Spotsylvania ","state":"VA","zip":"22553"}},"CAMPBELL":{"elections_url":"http://www.co.campbell.va.us","official":{"phone":"(434) 332-9579","fax":"(434) 332-9689"},"name":"Campbell County General Registrar","address":{"city":"Rustburg","state":"VA","zip":"24588","location_name":"Historic Courthouse"}},"WARREN":{"elections_url":"http://www.warrencountyva.net","official":{"phone":"(540) 635-4327","fax":"(540) 635-5456"},"name":"Warren County General Registrar","address":{"line1":"220 North Commerce Ave","city":"Front Royal ","state":"VA","zip":"22630"}},"JAMES CITY":{"elections_url":"http://www.james-city.va.us/voter/index.html","official":{"phone":"(757) 253-6868","fax":"(757) 253-6875"},"name":"James City County General Registrar","address":{"city":"Williamsburg","state":"VA","zip":"23187"}},"HENRICO":{"elections_url":"http://www.co.henrico.va.us/registrar/","official":{"phone":"(804) 501-4347","fax":"(804) 501-5081"},"name":"Henrico County General Registrar","address":{"city":"Henrico","state":"VA","zip":"23273"}},"ESSEX":{"official":{"phone":"(804) 443-4611","fax":"(804) 443-4498"},"name":"Essex County General Registrar","address":{"city":"Tappahannock ","state":"VA","zip":"22560"}},"SUSSEX":{"elections_url":"http://sussexcounty.govoffice.com/index.asp?Type=B_BASIC&SEC=%7BAAE97BBA-77F0-48E9-BAAE-726AE85C4A67%7D","official":{"phone":"(434) 246-1047","fax":"(434) 246-4315"},"name":"Sussex County General Registrar","address":{"city":"Sussex","state":"VA","zip":"23884"}},"BEDFORD":{"elections_url":"http://www.co.bedford.va.us/Res/vote/index.htm","official":{"phone":"(540) 586-7649","fax":"(540) 586-8358"},"name":"Bedford County General Registrar","address":{"line1":"122 E Main St","city":"Bedford","state":"VA","zip":"24523"}},"HANOVER":{"elections_url":"http://hanovervoter.com","official":{"phone":"(804) 365-6080","fax":"(804) 365-6078"},"name":"Hanover County General Registrar","address":{"city":"Hanover ","state":"VA","zip":"23069"}},"MADISON":{"elections_url":"http://www.madisonco.virginia.gov/index.php?option=com_content&view=category&layout=blog&id=79&Itemid=85","official":{"phone":"(540) 948-6533","fax":"(540) 948-7825"},"name":"Madison County General Registrar","address":{"line1":"302 Thrift Road","city":"Madison","state":"VA","zip":"22727"}},"HIGHLAND":{"official":{"phone":"(540) 468-2013","fax":"(540) 468-2012"},"name":"Highland County General Registrar","address":{"line1":"49 Spruce St.","city":"Monterey ","state":"VA","zip":"24465"}}},"cities":{"NEWPORT NEWS":{"elections_url":"http://www.nngov.com/voter-registrar","official":{"phone":"(757) 926-8683","fax":"(757) 926-3653"},"name":"Newport News City General Registrar","address":{"line1":"2400 Washington Ave","city":"Newport News ","state":"VA","zip":"23607","location_name":"City Hall"}},"WINCHESTER":{"elections_url":"http://www.winchesterva.gov/vote/","official":{"phone":"(540) 545-7910","fax":"(540) 545-7925"},"name":"Winchester City General Registrar","address":{"line1":"107-A N East Lane","city":"Winchester ","state":"VA","zip":"22601"}},"COLONIAL HEIGHTS":{"elections_url":"http://www.colonial-heights.com/Registrar.htm","official":{"phone":"(804) 520-9277","fax":"(804) 520-9209"},"name":"Colonial Heights City General Registrar","address":{"city":"Colonial Heights ","state":"VA","zip":"23834"}},"SUFFOLK":{"elections_url":"http://www.suffolk.va.us/registrar/","official":{"phone":"(757) 514-7750","fax":"(757) 934-0719"},"name":"Suffolk City General Registrar","address":{"line1":"425 W Washington St","city":"Suffolk","state":"VA","zip":"23439"}},"FREDERICKSBURG":{"elections_url":"http://www.fredericksburgva.gov","official":{"phone":"(540) 372-1030","fax":"(540) 373-8381"},"name":"Fredericksburg City General Registrar","address":{"city":"Fredericksburg","state":"VA","zip":"22404"}},"GALAX":{"official":{"phone":"(276) 236-7509","fax":"(276) 236-2889"},"name":"Galax City General Registrar","address":{"city":"Galax ","state":"VA","zip":"24333"}},"HARRISONBURG":{"elections_url":"http://www.harrisonburgva.gov/index.php?id=637","official":{"phone":"(540) 432-7707","fax":"(540) 432-7784"},"name":"Harrisonburg City General Registrar","address":{"city":"Harrisonburg","state":"VA","zip":"22801"}},"EMPORIA":{"official":{"phone":"(434) 634-9533","fax":"(434) 634-0003"},"name":"Emporia City General Registrar","address":{"city":"Emporia","state":"VA","zip":"23847"}},"CHARLOTTESVILLE":{"elections_url":"https://www.charlottesville.org/vote","official":{"phone":"(434) 970-3250","fax":"(434) 970-3249"},"name":"Charlottesville City General Registrar","address":{"city":"Charlottesville","state":"VA","zip":"22902","location_name":"City Hall Annex"}},"FALLS CHURCH":{"elections_url":"http://www.fallschurchva.gov/Content/Government/Vo","official":{"phone":"(703) 248-5085","fax":"(703) 248-5204"},"name":"Falls Church City General Registrar","address":{"line1":"300 Park Avenue","city":"Falls Church ","state":"VA","zip":"22046","location_name":"City Hall"}},"MARTINSVILLE":{"elections_url":"http://www.ci.martinsville.va.us/Registrar/default","official":{"phone":"(276) 403-5122","fax":"(276) 403-5258"},"name":"Martinsville City General Registrar","address":{"city":"Martinsville","state":"VA","zip":"24114"}},"LEXINGTON":{"elections_url":"http://www.ci.lexington.va.us/d-registrar.htm","official":{"phone":"(540) 462-3706","fax":"(540) 463-5310"},"name":"Lexington City General Registrar","address":{"city":"Lexington ","state":"VA","zip":"24450","location_name":"City Hall"}},"WAYNESBORO":{"elections_url":"http://www.waynesboro.va.us/boe.php","official":{"phone":"(540) 942-6620","fax":"(540) 942-6501"},"name":"Waynesboro City General Registrar","address":{"line1":"250 S Wayne Avenue","city":"Waynesboro","state":"VA","zip":"22980"}},"HAMPTON":{"elections_url":"http://www.hampton.gov/voter","official":{"phone":"(757) 727-6218","fax":"(757) 727-6084"},"name":"Hampton City General Registrar","address":{"line1":"1919 Commerce Dr","city":"Hampton","state":"VA","zip":"23666"}},"RADFORD":{"elections_url":"http://www.radford.va.us/registrar/","official":{"phone":"(540) 731-3639","fax":"(540) 633-0152"},"name":"Radford City General Registrar","address":{"line1":"519 2nd Street","city":"Radford ","state":"VA","zip":"24141"}},"DANVILLE":{"elections_url":"http://www.danville-va.gov","official":{"phone":"(434) 799-6560","fax":"(434) 797-8987"},"name":"Danville City General Registrar","address":{"line1":"515 Main Street","city":"Danville ","state":"VA","zip":"24541"}},"BRISTOL":{"elections_url":"http://www.bristolvavote.org/","official":{"phone":"(276) 645-7318","fax":"(276) 645-7331"},"name":"Bristol City General Registrar","address":{"line1":"300 Lee Street","city":"Bristol","state":"VA","zip":"24201"}},"CHESAPEAKE":{"elections_url":"http://www.cityofchesapeake.net/services/depart/vo","official":{"phone":"(757) 277-9797","fax":"(757) 547-5402"},"name":"Chesapeake City General Registrar","address":{"city":"Chesapeake","state":"VA","zip":"23328"}},"WILLIAMSBURG":{"elections_url":"http://www.ci.williamsburg.va.us/dept/votreg/mainp","official":{"phone":"(757) 220-6157","fax":"(757) 220-6158"},"name":"Williamsburg City General Registrar","address":{"line1":"412 North Boundary Street","city":"Williamsburg","state":"VA","zip":"23187"}},"ALEXANDRIA":{"elections_url":"http://www.alexandriavoter.org","official":{"phone":"(703) 838-4050","fax":"(703) 838-6449"},"name":"Alexandria City General Registrar","address":{"line1":"132 North Royal Street","city":"Alexandria","state":"VA","zip":"22314"}},"BEDFORD":{"elections_url":"http://www.bedfordva.gov","official":{"phone":"(540) 587-6007","fax":"(540) 587-6143"},"name":"Bedford City General Registrar","address":{"line1":"215 East Main Street","city":"Bedford","state":"VA","zip":"24523"}},"POQUOSON":{"elections_url":"http://www.ci.poquoson.va.us/redesign/voter/index.htm","official":{"phone":"(757) 868-3070","fax":"(757) 868-3104"},"name":"Poquoson City General Registrar","address":{"line1":"500 City Hall Ave.","city":"Poquoson","state":"VA","zip":"23662"}},"MANASSAS PARK":{"elections_url":"http://www.cityofmanassaspark.us/Public_Documents/ManassasParkVA_Registrar/index","official":{"phone":"(703) 335-8806","fax":"(703) 335-9042"},"name":"Manassas Park City General Registrar","address":{"line1":"1 Park Center Ct","city":"Manassas Park ","state":"VA","zip":"20111","location_name":"City Hall"}},"NORTON":{"elections_url":"http://www.nortonva.gov/residents/dept/registrar/faq.htm","official":{"phone":"(276) 679-1162","fax":"(276) 679-0754"},"name":"Norton City General Registrar","address":{"city":"Norton","state":"VA","zip":"24273"}},"MANASSAS":{"elections_url":"http://www.manassascity.org","official":{"phone":"(703) 257-8230","fax":"(703) 257-0080"},"name":"Manassas City General Registrar","address":{"line1":"9025 Center St","city":"Manassas","state":"VA","zip":"20110"}},"LYNCHBURG":{"elections_url":"http://www.lynchburgva.gov/home/index.asp?page=420","official":{"phone":"(434) 847-1609","fax":"(434) 947-2798"},"name":"Lynchburg City General Registrar","address":{"city":"Lynchburg ","state":"VA","zip":"24506"}},"FAIRFAX":{"elections_url":"http://www.fairfaxva.gov/Registrar/GeneralRegistra","official":{"phone":"(703) 385-7890","fax":"(703) 591-8364"},"name":"Fairfax City General Registrar","address":{"line1":"10455 Armstrong Street","city":"Fairfax ","state":"VA","zip":"22030"}},"BUENA VISTA":{"elections_url":"http://www.bvcity.org/registrar.htm","official":{"phone":"(540) 261-8605","fax":"(540) 261-8618"},"name":"Buena Vista City General Registrar","address":{"line1":"2039 Sycamore Avenue","city":"Buena Vista ","state":"VA","zip":"24416","location_name":"Courthouse"}},"NORFOLK":{"elections_url":"http://www.norfolk.gov/Elections/","official":{"phone":"(757) 664-4353","fax":"(757) 664-4685"},"name":"Norfolk City General Registrar","address":{"city":"Norfolk","state":"VA","zip":"23501","location_name":"City Hall"}},"VIRGINIA BEACH":{"elections_url":"http://www.vbgov.com/vgn.aspx?dept_list=aa98fd67f3ad9010VgnVCM100000870b640aRCRD","official":{"phone":"(757) 385-8683","fax":"(757) 385-5632"},"name":"Virginia Beach City General Registrar","address":{"city":"Virginia Beach ","state":"VA","zip":"23456"}},"PETERSBURG":{"elections_url":"http://www.petersburg-va.org/registrar/index.asp","official":{"phone":"(804) 733-2380","fax":"(804) 863-2760"},"name":"Petersburg City General Registrar","address":{"line1":"142 N. Union Street","city":"Petersburg","state":"VA","zip":"23804"}},"STAUNTON":{"elections_url":"http://www.staunton.va.us/default.asp?pageID=0DFD5","official":{"phone":"(540) 332-3840","fax":"(540) 332-3834"},"name":"Staunton City General Registrar","address":{"city":"Staunton","state":"VA","zip":"24401","location_name":"City Hall"}},"RICHMOND":{"elections_url":"http://www.richmondgov.com/departments/registrar/","official":{"phone":"(804) 646-5950","fax":"(804) 646-7848"},"name":"Richmond City General Registrar","address":{"line1":"900 East Broad Street","city":"Richmond","state":"VA","zip":"23261","location_name":"City Hall"}},"ROANOKE":{"elections_url":"http://www.roanokeva.gov/85256a8d0062af37/vwContentByKey/N2525H8U899SPEAEN","official":{"phone":"(540) 853-2281","fax":"(540) 853-1025"},"name":"Roanoke City General Registrar","address":{"line1":"215 Church Ave.","city":"Roanoke","state":"VA","zip":"24011","location_name":"Municipal North"}},"COVINGTON":{"elections_url":"http://www.covington.va.us/registrar.shtml","official":{"phone":"(540) 965-6380","fax":"(540) 965-6362"},"name":"Covington City General Registrar","address":{"line1":"1011 A N Rockbridge Ave","city":"Covington","state":"VA","zip":"24426"}},"FRANKLIN":{"elections_url":"http://www.franklinva.com/index.php?option=com_content&view=article&id=69&Itemid=91","official":{"phone":"(757) 562-8545","fax":"(757) 562-8779"},"name":"Franklin City General Registrar","address":{"line1":"100 S Main St","city":"Franklin ","state":"VA","zip":"23851"}},"HOPEWELL":{"elections_url":"http://www.hopewellva.gov/data/publish/voter_registration.shtml","official":{"phone":"(804) 541-2232","fax":"(804) 452-5828"},"name":"Hopewell City General Registrar","address":{"line1":"309 N 2nd Ave","city":"Hopewell ","state":"VA","zip":"23860"}},"SALEM":{"elections_url":"https://www.ci.salem.va.us","official":{"phone":"(540) 375-3034","fax":"(540) 375-4052"},"name":"Salem City General Registrar","address":{"city":"Salem","state":"VA","zip":"24153"}},"PORTSMOUTH":{"elections_url":"https://www.portsmouthva.gov/registrar","official":{"phone":"(757) 393-8644","fax":"(757) 393-5415"},"name":"Portsmouth City General Registrar","address":{"line1":"801 Crawford Street","city":"Portsmouth","state":"VA","zip":"23704"}}}}